INTELSAT 22 (IS-22) [PM]
1 38098C 12011A   23204.72488426  .00000020  00000-0  00000-0 0  2046
2 38098   0.0386 245.2431 0002611 248.5735 140.4380  1.00269631    11
INTELSAT 19 (IS-19) [PM]
1 38356C 12030A   23200.30138889 -.00000012  00000-0  00000-0 0  2007
2 38356   0.0001  52.4338 0002710  69.3148  89.5735  1.00271998    19
INTELSAT 19 (IS-19)     
1 38356C 12030A   23200.97581019  .00000033  00000-0  00000-0 0  2009
2 38356   0.0007  60.1068 0002710  62.7772 331.8970  1.00271630    18
INTELSAT 20 (IS-20)     
1 38740C 12043A   23200.90136574  .00000066  00000-0  00000-0 0  2001
2 38740   0.0167 117.9786 0001340  76.0719 136.3489  1.00270579    11
INTELSAT 20 (IS-20) [PM]
1 38740C 12043A   23201.24596065  .00000148  00000-0  00000-0 0  2016
2 38740   0.0494 235.2499 0001382  39.7712 179.7731  1.00272247    19
INTELSAT 21 (IS-21) [PM]
1 38749C 12045A   23200.90033565 -.00000198  00000-0  00000-0 0  2005
2 38749   0.0001  32.3619 0002000  89.6464  81.5031  1.00274180    19
INTELSAT 21 (IS-21)     
1 38749C 12045A   23200.97581019 -.00000234  00000-0  00000-0 0  2005
2 38749   0.0001  34.3456 0002016  87.7854 108.6263  1.00274250    15
INTELSAT 23 (IS-23) [PM]
1 38867C 12057A   23198.47373843  .00000043  00000-0  00000-0 0  1987
2 38867   0.0218 159.7808 0000374  21.6358 231.1561  1.00273010    16
INTELSAT 23 (IS-23)     
1 38867C 12057A   23200.97581019 -.00000213  00000-0  00000-0 0  2006
2 38867   0.0103 271.8756 0000502 127.7416 196.1800  1.00271045    15
INTELSAT 30 (IS-30) [PM]
1 40271C 14062A   23200.31258102 -.00000065  00000-0  00000-0 0  2003
2 40271   0.0528 227.8824 0001621 315.2725 131.1409  1.00273321    18
INTELSAT 30 (IS-30)     
1 40271C 14062A   23200.90136574 -.00000060  00000-0  00000-0 0  2001
2 40271   0.0062  81.7165 0001487 356.1940  88.9309  1.00271196    15
INTELSAT 34 (IS-34)     
1 40874C 15039A   23200.90136574 -.00000194  00000-0  00000-0 0  2003
2 40874   0.0341 291.2580 0001251  69.4071 205.7517  1.00269778    14
INTELSAT 34 (IS-34) [PM]
1 40874C 15039A   23201.34118056 -.00000198  00000-0  00000-0 0  2012
2 40874   0.0355 195.4687 0001234 294.6546 235.0552  1.00273425    11
INTELSAT 31 (IS-31)     
1 41581C 16035A   23200.90136574 -.00000102  00000-0  00000-0 0  2005
2 41581   0.0150 183.3155 0001257  60.0287 283.5024  1.00269588    15
INTELSAT 31 (IS-31) [PM]
1 41581C 16035A   23201.42976852 -.00000097  00000-0  00000-0 0  2018
2 41581   0.0286 240.8475 0001123 153.3655 323.3758  1.00273596    17
INTELSAT 36 (IS-36) [PM]
1 41747C 16053A   23200.86319444  .00000059  00000-0  00000-0 0  2003
2 41747   0.0387 299.5237 0002574  10.9227   6.1690  1.00272640    14
INTELSAT 36 (IS-36)     
1 41747C 16053A   23200.90136574  .00000065  00000-0  00000-0 0  2006
2 41747   0.0063  41.7952 0002615 317.1651 331.4353  1.00271253    14
INTELSAT 33E        [PM]
1 41748C 16053B   23200.80289352  .00000135  00000-0  00000-0 0  2007
2 41748   0.0604 261.0980 0001776 217.3150 167.9362  1.00271106    15
INTELSAT 33E            
1 41748C 16053B   23200.97581019  .00000137  00000-0  00000-0 0  2002
2 41748   0.0600 261.1835 0001793 218.5676 229.0187  1.00270948    14
INTELSAT 32E        [PM]
1 41945C 17007B   23200.25994213 -.00000178  00000-0  00000-0 0  2002
2 41945   0.0517 228.8905 0000694 220.2458 258.0348  1.00274649    18
INTELSAT 32E            
1 41945C 17007B   23200.97581019 -.00000179  00000-0  00000-0 0  2008
2 41945   0.0093  84.2568 0000314 250.0821 271.2520  1.00270405    15
INTELSAT 35E        [PM]
1 42818C 17041A   23200.57421296 -.00003686  00000-0  00000-0 0  2008
2 42818   0.0024 170.8387 0001392 136.9473 161.5321  1.00272660    17
INTELSAT 35E            
1 42818C 17041A   23200.97581019  .00000165  00000-0  00000-0 0  2000
2 42818   0.0285 292.2501 0001393 168.0560 153.9830  1.00272193    18
INTELSAT 37E            
1 42950C 17059A   23200.97581019 -.00000051  00000-0  00000-0 0  2001
2 42950   0.0086  92.1036 0002415  39.8208 138.8677  1.00272286    18
INTELSAT 37E        [PM]
1 42950C 17059A   23201.03333333 -.00004527  00000-0  00000-0 0  2016
2 42950   0.0417 236.1213 0002491 259.1864 156.2479  1.00271773    16
AZERSPACE 2 (IS-38)     
1 43632C 18074A   23200.90136574  .00000227  00000-0  00000-0 0  2006
2 43632   0.0086  87.1642 0001205  38.5852 181.2795  1.00271077    10
HORIZONS-3E             
1 43633C 18074B   23200.90136574  .00000055  00000-0  00000-0 0  2006
2 43633   0.0408 189.6397 0001316  94.0549 147.2127  1.00269228    13
INTELSAT 39 (IS-39)     
1 44476C 19049B   23200.90136574  .00000120  00000-0  00000-0 0  2008
2 44476   0.0001  77.4927 0001075 264.9921 341.3637  1.00270961    14
INTELSAT 39 (IS-39) [PM]
1 44476C 19049B   23201.25633102  .00000125  00000-0  00000-0 0  2012
2 44476   0.0455 217.6898 0001123 225.1003   9.1993  1.00271648    13
GALAXY 30 (G-30)    [PM]
1 46114C 20056C   23200.79722222  .00000133  00000-0  00000-0 0  2001
2 46114   0.0000  41.5968 0001736  75.4298 342.2844  1.00271653    16
GALAXY 30 (G-30)        
1 46114C 20056C   23200.97581019  .00000129  00000-0  00000-0 0  2003
2 46114   0.0001  30.9468 0001736  83.4884  49.3437  1.00271749    13
GALAXY 33 (G-33)    [PM]
1 54026C 22128A   23199.74107639  .00000120  00000-0  00000-0 0  1998
2 54026   0.0001  44.5397 0001695  70.9916 314.5389  1.00269972    15
GALAXY 33 (G-33)        
1 54026C 22128A   23200.97581019  .00000169  00000-0  00000-0 0  2000
2 54026   0.0002  56.6348 0001723  55.7181  43.4348  1.00270372    12
GALAXY 34 (G-34)    [PM]
1 54027C 22128B   23200.80555556  .00000164  00000-0  00000-0 0  2005
2 54027   0.0012  68.6411 0000950  50.4251 339.2318  1.00271545    15
GALAXY 34 (G-34)        
1 54027C 22128B   23200.97581019  .00000144  00000-0  00000-0 0  2004
2 54027   0.0000  69.9691 0001054  44.3524  45.4367  1.00271228    15
GALAXY 31 (G-31)    [PM]
1 54243C 22153A   23200.85670139  .00000101  00000-0  00000-0 0  2004
2 54243   0.0000  81.6718 0002086 179.6473 223.4627  1.00271248    16
GALAXY 31 (G-31)        
1 54243C 22153A   23200.90136574  .00000102  00000-0  00000-0 0  2001
2 54243   0.0004  51.9171 0002108 210.9134 238.0740  1.00271192    17
GALAXY 32 (G-32)        
1 54244C 22153B   23200.90136574 -.00000081  00000-0  00000-0 0  2009
2 54244   0.0043  37.2133 0001408  14.3134 119.3648  1.00270145    19
GALAXY 32 (G-32)    [PM]
1 54244C 22153B   23201.02429398 -.00000084  00000-0  00000-0 0  2016
2 54244   0.0045  38.3080 0001586  11.6440 165.3143  1.00272974    14
GALAXY 35 (G-35)    [PM]
1 54741C 22170A   23200.13643519 -.00000073  00000-0  00000-0 0  2008
2 54741   0.0474 231.3655 0000662 340.3210  40.9874  1.00272412    12
GALAXY 35 (G-35)        
1 54741C 22170A   23200.90136574 -.00000070  00000-0  00000-0 0  2008
2 54741   0.0001  76.5604 0000629 134.9756 317.2702  1.00272116    17
GALAXY 35 (G-35)    [PM]
1 54741C 22170A   23204.68421296 -.00004061  00000-0  00000-0 0  2043
2 54741   0.0138 321.8342 0000647 224.2232 268.3086  1.00271504    16
GALAXY 36 (G-36)    [PM]
1 54742C 22170B   23200.04846065 -.00000143  00000-0  00000-0 0  2008
2 54742   0.0001  68.3173 0003184  35.8702 120.8234  1.00272995    10
GALAXY 36 (G-36)        
1 54742C 22170B   23200.90136574 -.00000094  00000-0  00000-0 0  2005
2 54742   0.0009  87.4582 0003216  15.9335  69.5109  1.00272576    16
INTELSAT 40E        [PM]
1 56174C 23052A   23199.81666667 -.00000084  00000-0  00000-0 0  1990
2 56174   0.0080 109.4143 0002082  36.0297 353.8964  1.00272616    18
INTELSAT 40E            
1 56174C 23052A   23200.90136574 -.00000084  00000-0  00000-0 0  2005
2 56174   0.0109 116.9615 0002100  26.9690  26.9759  1.00272401    15
INTELSAT 40E        [PM]
1 56174C 23052A   23203.68055556 -.00004232  00000-0  00000-0 0  2035
2 56174   0.0367 217.6601 0002338 284.1818 312.3217  1.00271129    15
